{
    "links": {
        "self": "http://www.neowsapp.com/rest/v1/neo/3582230?api_key=iIulBulltgU6a56xZRHN4H3l9WmuAYTsLGpBGhQ2"
    },
    "id": "3582230",
    "neo_reference_id": "3582230",
    "name": "(2011 UE21)",
    "designation": "2011 UE21",
    "nasa_jpl_url": "http://ssd.jpl.nasa.gov/sbdb.cgi?sstr=3582230",
    "absolute_magnitude_h": 20.4,
    "estimated_diameter": {
        "kilometers": {
            "estimated_diameter_min": 0.2210828104,
            "estimated_diameter_max": 0.4943561926
        },
        "meters": {
            "estimated_diameter_min": 221.0828103591,
            "estimated_diameter_max": 494.3561926196
        },
        "miles": {
            "estimated_diameter_min": 0.137374447,
            "estimated_diameter_max": 0.3071786018
        },
        "feet": {
            "estimated_diameter_min": 725.3373275385,
            "estimated_diameter_max": 1621.9035709942
        }
    },
    "is_potentially_hazardous_asteroid": false,
    "close_approach_data": [
        {
            "close_approach_date": "2011-10-02",
            "close_approach_date_full": "2011-Oct-02 02:50",
            "epoch_date_close_approach": 1317523800000,
            "relative_velocity": {
                "kilometers_per_second": "34.212133378",
                "kilometers_per_hour": "123163.6801609764",
                "miles_per_hour": "76529.1211533578"
            },
            "miss_distance": {
                "astronomical": "0.2142514404",
                "lunar": "83.3438103156",
                "kilometers": "32051559.128271948",
                "miles": "19915915.3290429624"
            },
            "orbiting_body": "Earth"
        }
    ],
    "orbital_data": {
        "orbit_id": "7",
        "orbit_determination_date": "2017-04-06 08:52:24",
        "first_observation_date": "2011-10-19",
        "last_observation_date": "2011-10-28",
        "data_arc_in_days": 9,
        "observations_used": 32,
        "orbit_uncertainty": "9",
        "minimum_orbit_intersection": ".0928988",
        "jupiter_tisserand_invariant": "2.966",
        "epoch_osculation": "2455855.5",
        "eccentricity": ".732522540130328",
        "semi_major_axis": "2.230884674439931",
        "inclination": "44.74204366835123",
        "ascending_node_longitude": "9.733149147868559",
        "orbital_period": "1217.06593488896",
        "perihelion_distance": ".5967113659813729",
        "perihelion_argument": "255.9008434982437",
        "aphelion_distance": "3.865057982898489",
        "perihelion_time": "2455786.388507573916",
        "mean_anomaly": "20.44271929742261",
        "mean_motion": ".2957933417410494",
        "equinox": "J2000",
        "orbit_class": {
            "orbit_class_type": "APO",
            "orbit_class_description": "Near-Earth asteroid orbits which cross the Earth’s orbit similar to that of 1862 Apollo",
            "orbit_class_range": "a (semi-major axis) > 1.0 AU; q (perihelion) < 1.017 AU"
        }
    },
    "is_sentry_object": false
}